NORAD_CAT_ID,OBJECT_NAME,OBJECT_TYPE,EPOCH,MEAN_MOTION,ECCENTRICITY,INCLINATION,RA_OF_ASC_NODE,ARG_OF_PERICENTER,MEAN_ANOMALY,BSTAR,MEAN_MOTION_DOT,MEAN_MOTION_DDOT,TLE_LINE0,TLE_LINE1,TLE_LINE2,SEMIMAJOR_AXIS,PERIOD,APOGEE,PERIGEE,DECAYED
53749.0,STARLINK-4680,PAYLOAD,2022-11-30 14:00:01,15.08804482,0.0001792,53.2156,229.3158,51.599,178.9946,0.0032429,0.00051651,0.0,0 STARLINK-4680,1 53749U 22107BB  22334.58335648  .00051651  00000-0  32429-2 0  9996,2 53749  53.2156 229.3158 0001792  51.5990 178.9946 15.08804482 13389,6917.989000000001,95.44,541.094,538.614,0.0
53749.0,STARLINK-4680,PAYLOAD,2022-11-30 22:00:00,15.08823892,0.0001864,53.2166,227.8238,51.9604,190.1473,0.0033178,0.00052888,0.0,0 STARLINK-4680,1 53749U 22107BB  22334.91667824  .00052888  00000-0  33178-2 0  9992,2 53749  53.2166 227.8238 0001864  51.9604 190.1473 15.08823892  1304,6917.93,95.439,541.0840000000002,538.505,0.0
53749.0,STARLINK-4680,PAYLOAD,2022-12-01 06:00:00,15.08844909,0.0001985,53.2154,226.3246,47.412,206.2821,0.00035532,5.372e-05,0.0,0 STARLINK-4680,1 53749U 22107BB  22335.25001157  .00005372  00000-0  35532-3 0  9994,2 53749  53.2154 226.3246 0001985  47.4120 206.2821 15.08844909 13481,6917.865,95.437,541.104,538.357,0.0
53749.0,STARLINK-4680,PAYLOAD,2022-12-01 14:00:01,15.08842008,0.0001802,53.2153,224.8256,53.6882,211.6265,0.0020566,0.00032597,0.0,0 STARLINK-4680,1 53749U 22107BB  22335.58334491  .00032597  00000-0  20566-2 0  9999,2 53749  53.2153 224.8256 0001802  53.6882 211.6265 15.08842008  1304,6917.874,95.437,540.986,538.493,0.0
53749.0,STARLINK-4680,PAYLOAD,2022-12-01 22:00:00,15.08846717,0.0001879,53.2162,223.3325,50.1133,226.8095,-0.00073506,-0.0001197,0.0,0 STARLINK-4680,1 53749U 22107BB  22335.91667824 -.00011970  00000-0 -73506-3 0  9992,2 53749  53.2162 223.3325 0001879  50.1133 226.8095 15.08846717  1300,6917.86,95.437,541.025,538.425,0.0
53749.0,STARLINK-4680,PAYLOAD,2022-12-02 14:00:01,15.08807994,0.0001709,53.215,220.3364,52.1518,247.9798,0.0028695,0.00045636,0.0,0 STARLINK-4680,1 53749U 22107BB  22336.58334491  .00045636  00000-0  28695-2 0  9999,2 53749  53.2150 220.3364 0001709  52.1518 247.9798 15.08807994 13680,6917.978,95.44,541.026,538.661,0.0
53749.0,STARLINK-4680,PAYLOAD,2022-12-02 22:00:00,15.08839855,0.0001855,53.215,218.8416,48.875,262.8321,-0.00079759,-0.00012959,0.0,0 STARLINK-4680,1 53749U 22107BB  22336.91667824 -.00012959  00000-0 -79759-3 0  9997,2 53749  53.2150 218.8416 0001855  48.8750 262.8321 15.08839855  1307,6917.880999999999,95.438,541.029,538.4630000000002,0.0
53749.0,STARLINK-4680,PAYLOAD,2022-12-03 08:00:01,15.08856735,0.000181,53.2149,216.9704,47.1953,8.9973,-0.0040942,-0.00064891,0.0,0 STARLINK-4680,1 53749U 22107BB  22337.33334491 -.00064891  00000-0 -40942-2 0  9998,2 53749  53.2149 216.9704 0001810  47.1953   8.9973 15.08856735 13808,6917.829000000002,95.436,540.946,538.442,0.0
53749.0,STARLINK-4680,PAYLOAD,2022-12-03 14:00:01,15.08797559,0.0001696999999999,53.2148,215.8473,51.526,283.368,0.0032328,0.00051478,0.0,0 STARLINK-4680,1 53749U 22107BB  22337.58334491  .00051478  00000-0  32328-2 0  9999,2 53749  53.2148 215.8473 0001697  51.5260 283.3680 15.08797559  1305,6918.01,95.44,541.049,538.701,0.0
53749.0,STARLINK-4680,PAYLOAD,2022-12-03 22:00:00,15.08832241,0.0001883,53.2148,214.3525,47.9968,298.4632,-0.00076188,-0.00012391,0.0,0 STARLINK-4680,1 53749U 22107BB  22337.91667824 -.00012391  00000-0 -76188-3 0  9991,2 53749  53.2148 214.3525 0001883  47.9968 298.4632 15.08832241 13886,6917.904,95.438,541.072,538.466,0.0
53749.0,STARLINK-4680,PAYLOAD,2022-12-04 14:00:01,15.08821133,0.0001805,53.2147,211.3581,52.6049,317.0323,0.0031914,0.00050844,0.0,0 STARLINK-4680,1 53749U 22107BB  22338.58334491  .00050844  00000-0  31914-2 0  9996,2 53749  53.2147 211.3581 0001805  52.6049 317.0323 15.08821133 13996,6917.938,95.439,541.052,538.554,0.0
53749.0,STARLINK-4680,PAYLOAD,2022-12-04 22:00:00,15.08856135,0.0001986,53.2148,209.8634,48.5996,332.6312,-0.00075365,-0.00012268,0.0,0 STARLINK-4680,1 53749U 22107BB  22338.91667824 -.00012268  00000-0 -75365-3 0  9991,2 53749  53.2148 209.8634 0001986  48.5996 332.6312 15.08856135  1306,6917.831,95.437,541.07,538.322,0.0
53749.0,STARLINK-4680,PAYLOAD,2022-12-05 06:00:00,15.08875397,0.0001941,53.2147,208.3666,45.5473,347.2912,-0.0034725,-0.00055184,0.0,0 STARLINK-4680,1 53749U 22107BB  22339.25001157 -.00055184  00000-0 -34725-2 0  9998,2 53749  53.2147 208.3666 0001941  45.5473 347.2912 15.08875397 14091,6917.772,95.435,540.98,538.294,0.0
53749.0,STARLINK-4680,PAYLOAD,2022-12-05 14:00:01,15.08824118,0.000182,53.2149,206.8687,51.1749,353.3413,0.0029271,0.00046585,0.0,0 STARLINK-4680,1 53749U 22107BB  22339.58335648  .00046585  00000-0  29271-2 0  9992,2 53749  53.2149 206.8687 0001820  51.1749 353.3413 15.08824118  1303,6917.929,95.439,541.053,538.535,0.0
53749.0,STARLINK-4680,PAYLOAD,2022-12-05 20:09:48,15.08843245,0.0001967,53.2161,205.7177,53.8099,306.3075,0.00017566,2.509e-05,0.0,0 STARLINK-4680,1 53749U 22107BB  22339.84014883  .00002509  00000-0  17566-3 0  9999,2 53749  53.2161 205.7177 0001967  53.8099 306.3075 15.08843245 14182,6917.87,95.437,541.096,538.375,0.0
53749.0,STARLINK-4680,PAYLOAD,2022-12-06 02:31:21,15.0884726,0.0001959,53.2157,204.5277,52.8524,307.2647,0.00022234,3.253e-05,0.0,0 STARLINK-4680,1 53749U 22107BB  22340.10510632  .00003253  00000-0  22234-3 0  9998,2 53749  53.2157 204.5277 0001959  52.8524 307.2647 15.08847260 15006,6917.858,95.437,541.078,538.368,0.0
53749.0,STARLINK-4680,PAYLOAD,2022-12-06 20:00:36,15.08834602,0.000195,53.2168,201.2553,63.0302,297.0889,-0.00010585,-1.972e-05,0.0,0 STARLINK-4680,1 53749U 22107BB  22340.83375184 -.00001972  00000-0 -10585-3 0  9993,2 53749  53.2168 201.2553 0001950  63.0302 297.0889 15.08834602 15110,6917.897,95.438,541.111,538.413,0.0
53749.0,STARLINK-4680,PAYLOAD,2022-12-06 21:36:00,15.08829654,0.0001942,53.2166,200.9586,54.1324,305.9849,-9.1102e-05,-1.737e-05,0.0,0 STARLINK-4680,1 53749U 22107BB  22340.90000008 -.00001737  00000-0 -91102-4 0  9995,2 53749  53.2166 200.9586 0001942  54.1324 305.9849 15.08829654 14346,6917.9119999999975,95.438,541.12,538.434,0.0
53749.0,STARLINK-4680,PAYLOAD,2022-12-07 15:05:14,15.08829227,0.0001899,53.2162,197.6878,53.5805,306.5362,-2.5906e-05,-7.000000000000003e-06,0.0,0 STARLINK-4680,1 53749U 22107BB  22341.62864189 -.00000700  00000-0 -25906-4 0  9991,2 53749  53.2162 197.6878 0001899  53.5805 306.5362 15.08829227 15238,6917.913000000001,95.438,541.092,538.465,0.0
53749.0,STARLINK-4680,PAYLOAD,2022-12-07 23:02:09,15.08838267,0.0001822,53.2159,196.2009,47.6662,312.4484,1.9563e-05,2.3e-07,0.0,0 STARLINK-4680,1 53749U 22107BB  22341.95983672  .00000023  00000-0  19563-4 0  9994,2 53749  53.2159 196.2009 0001822  47.6662 312.4484 15.08838267 14500,6917.886,95.438,541.011,538.49,0.0
53749.0,STARLINK-4680,PAYLOAD,2022-12-09 00:28:20,15.0882959,0.0001701,53.2158,191.4441,44.3766,315.7362,0.0001813,2.598e-05,0.0,0 STARLINK-4680,1 53749U 22107BB  22343.01968136  .00002598  00000-0  18130-3 0  9998,2 53749  53.2158 191.4441 0001701  44.3766 315.7362 15.08829590 14668,6917.9119999999975,95.438,540.9540000000002,538.6,0.0
53749.0,STARLINK-4680,PAYLOAD,2022-12-09 06:49:52,15.08827788,7.240000000000001e-05,53.217,190.256,322.317,37.7771,0.00011562,1.552e-05,0.0,0 STARLINK-4680,1 53749U 22107BB  22343.28463838  .00001552  00000-0  11562-3 0  9997,2 53749  53.2170 190.2560 0000724 322.3170  37.7771 15.08827788 15486,6917.918000000002,95.438,540.284,539.2819999999998,0.0
53749.0,STARLINK-4680,PAYLOAD,2022-12-09 19:32:54,15.08895652,0.0001498,53.2172,187.8772,42.2005,317.9103,0.00027125,4.038e-05,0.0,0 STARLINK-4680,1 53749U 22107BB  22343.81452070  .00004038  00000-0  27125-3 0  9996,2 53749  53.2172 187.8772 0001498  42.2005 317.9103 15.08895652 14788,6917.71,95.434,540.612,538.539,0.0
53749.0,STARLINK-4680,PAYLOAD,2022-12-10 00:19:07,15.08839516,0.0001591,53.2171,186.9832,49.1284,310.9846,0.00012526,1.706e-05,0.0,0 STARLINK-4680,1 53749U 22107BB  22344.01327963  .00001706  00000-0  12526-3 0  9999,2 53749  53.2171 186.9832 0001591  49.1284 310.9846 15.08839516 14811,6917.882,95.438,540.8480000000002,538.646,0.0
53749.0,STARLINK-4680,PAYLOAD,2022-12-10 19:23:45,15.08833959,0.0001736,53.2182,183.4143,45.0905,315.0228,7.4132e-05,8.92e-06,0.0,0 STARLINK-4680,1 53749U 22107BB  22344.80816372  .00000892  00000-0  74132-4 0  9990,2 53749  53.2182 183.4143 0001736  45.0905 315.0228 15.08833959 14934,6917.899,95.438,540.965,538.563,0.0
53749.0,STARLINK-4680,PAYLOAD,2022-12-10 22:34:31,15.08832039,0.0001808,53.218,182.8198,45.9678,314.1463,5.4272e-05,5.76e-06,0.0,0 STARLINK-4680,1 53749U 22107BB  22344.94064657  .00000576  00000-0  54272-4 0  9998,2 53749  53.2180 182.8198 0001808  45.9678 314.1463 15.08832039 15739,6917.905,95.438,541.02,538.519,0.0
53749.0,STARLINK-4680,PAYLOAD,2022-12-11 20:49:55,15.08841137,0.0001646,53.218,178.6563,48.5989,311.5145,4.3641e-05,4.07e-06,0.0,0 STARLINK-4680,1 53749U 22107BB  22345.86800262  .00000407  00000-0  43641-4 0  9991,2 53749  53.2180 178.6563 0001646  48.5989 311.5145 15.08841137 15874,6917.877,95.437,540.881,538.6030000000002,0.0
53749.0,STARLINK-4680,PAYLOAD,2022-12-11 22:25:18,15.08841663,0.0001648,53.218,178.3589,48.673,311.4404,4.6547e-05,4.53e-06,0.0,0 STARLINK-4680,1 53749U 22107BB  22345.93424211  .00000453  00000-0  46547-4 0  9994,2 53749  53.2180 178.3589 0001648  48.6730 311.4404 15.08841663 15103,6917.875,95.437,540.88,538.6,0.0
53749.0,STARLINK-4680,PAYLOAD,2022-12-13 06:13:00,15.08846883,0.0001878,53.2179,172.4117,49.4392,310.6764,0.00015308,2.149e-05,0.0,0 STARLINK-4680,1 53749U 22107BB  22347.25903425  .00002149  00000-0  15308-3 0  9994,2 53749  53.2179 172.4117 0001878  49.4392 310.6764 15.08846883 15302,6917.859,95.437,541.024,538.425,0.0
